STARLINK-32705          
1 62479U 24254T   26068.18665754  .00028904  00000+0  10549-2 0  9992
2 62479  43.0028  11.6338 0001402 251.0494 109.0206 15.27607131 67500
LIME                    
1 62648U 25009AR  26068.73906781  .00013254  00000+0  47723-3 0  9995
2 62648  97.3985 151.4831 0001635  35.9029 324.2320 15.28703313 63766
